OBJECT_NAME,OBJECT_ID,EPOCH,MEAN_MOTION,ECCENTRICITY,INCLINATION,RA_OF_ASC_NODE,ARG_OF_PERICENTER,MEAN_ANOMALY,EPHEMERIS_TYPE,CLASSIFICATION_TYPE,NORAD_CAT_ID,ELEMENT_SET_NO,REV_AT_EPOCH,BSTAR,MEAN_MOTION_DOT,MEAN_MOTION_DDOT
STARLINK-5100,2023-015AY,2026-06-20T03:31:14.721024,15.27583707,.00014692,43.0049,102.8807,265.9934,94.0750,0,U,55495,999,18647,.59081515E-4,.1364E-4,0
STARLINK-5363,2023-015BA,2026-06-20T06:45:34.933248,15.27574483,.00010274,43.0015,120.4839,258.4603,101.6134,0,U,55497,999,18628,.10712138E-4,.33E-6,0
STARLINK-5365,2023-015BB,2026-06-20T07:00:23.170176,15.27575967,.00008893,43.0020,120.5592,261.4385,98.6366,0,U,55498,999,18628,-.6826211E-5,-.45E-5,0
STARLINK-5366,2023-015BC,2026-06-20T04:19:36.595488,15.27580694,.00016425,43.0040,120.5871,279.9897,80.0769,0,U,55499,999,18702,.36514892E-4,.743E-5,0
STARLINK-5141,2023-015BD,2026-06-20T05:16:58.638432,15.27576801,.00011126,43.0013,120.8858,246.2317,113.8418,0,U,55500,999,18627,.21997199E-4,.343E-5,0
STARLINK-5367,2023-015BE,2026-06-20T05:37:19.279488,15.27580604,.00008953,43.0028,120.9774,273.9348,86.1402,0,U,55501,999,18627,.23291628E-4,.379E-5,0
STARLINK-5749,2023-020A,2026-06-20T05:46:47.675712,15.27576449,.00011203,42.9995,149.7161,265.9947,94.0777,0,U,55569,999,18562,.24767983E-4,.42E-5,0
STARLINK-5737,2023-020B,2026-06-20T07:01:18.765120,15.27572701,.00000927,43.0006,145.8397,332.5476,27.5371,0,U,55570,999,18460,.16955143E-4,.205E-5,0
STARLINK-5739,2023-020C,2026-06-20T05:17:12.450336,15.27572181,.00012053,43.0003,149.5621,259.1060,100.9656,0,U,55571,999,18455,.2704873E-5,-.188E-5,0
STARLINK-5732,2023-020D,2026-06-20T00:31:01.405056,15.27578087,.00012102,43.0015,150.6531,261.3741,98.6973,0,U,55572,999,18452,.19439498E-4,.273E-5,0
STARLINK-5738,2023-020E,2026-06-20T05:07:57.668160,15.27565001,.00012625,43.0030,149.5145,242.3003,117.7721,0,U,55573,999,18455,.90389807E-4,.2225E-4,0
STARLINK-5747,2023-020F,2026-06-20T05:57:53.789472,15.27575585,.00010313,43.0021,149.7762,298.1789,61.8959,0,U,55574,999,18455,.18646965E-4,.251E-5,0
STARLINK-5745,2023-020G,2026-06-20T07:00:35.694720,15.27577357,.00012789,43.0025,149.2396,268.5376,91.5329,0,U,55575,999,18456,.37017769E-4,.757E-5,0
STARLINK-5751,2023-020H,2026-06-20T05:40:50.960352,15.27575838,.00010307,43.0023,120.2822,269.6918,90.3816,0,U,55576,999,18489,.2117716E-4,.321E-5,0
STARLINK-5752,2023-020J,2026-06-20T05:43:42.618144,15.27595721,.00009823,43.0022,146.2080,126.5970,233.4972,0,U,55577,999,18459,.75447159E-3,.20567E-3,0
STARLINK-5754,2023-020L,2026-06-20T06:48:19.881216,15.27594915,.00008508,43.0028,145.7612,284.7108,75.3650,0,U,55579,999,18460,.7663322E-4,.1848E-4,0
STARLINK-5757,2023-020M,2026-06-20T04:21:29.830464,15.27575903,.00016403,43.0051,120.7288,270.7094,89.3570,0,U,55580,999,18488,.7472672E-5,-.57E-6,0
STARLINK-5753,2023-020N,2026-06-20T05:25:43.943520,15.27575903,.00012053,43.0021,153.0157,266.8990,93.1724,0,U,55581,999,18451,.39430644E-4,.823E-5,0
STARLINK-5741,2023-020P,2026-06-20T05:49:22.812960,15.27574524,.00013876,43.0020,135.0526,262.2825,97.7869,0,U,55582,999,18472,.18588902E-4,.249E-5,0
STARLINK-5742,2023-020Q,2026-06-20T04:40:53.358528,15.27577507,.00014864,43.0016,145.9652,264.4827,95.5855,0,U,55583,999,18459,.23510343E-4,.385E-5,0
STARLINK-5736,2023-020R,2026-06-19T23:49:23.057472,15.27581936,.00015057,43.0030,147.8843,275.3356,84.7323,0,U,55584,999,18455,-.8188659E-5,-.488E-5,0
STARLINK-5769,2023-020S,2026-06-20T06:24:32.623200,15.27575730,.0000748,43.0014,135.2446,251.3279,108.7491,0,U,55585,999,18472,-.6525987E-5,-.441E-5,0
STARLINK-5767,2023-020T,2026-06-20T05:41:58.349760,15.27514713,.00006529,43.0018,146.2804,246.2877,113.7906,0,U,55586,999,18459,.42709143E-3,.11486E-3,0
STARLINK-5727,2023-020U,2026-06-20T05:32:40.995456,15.27576837,.00004483,43.0019,146.1587,273.0721,87.0080,0,U,55587,999,18459,.10952714E-4,.4E-6,0
STARLINK-5728,2023-020V,2026-06-20T07:10:33.692448,15.27574732,.00012145,43.0024,145.8858,263.0284,97.0429,0,U,55588,999,18460,-.8929993E-5,-.508E-5,0
STARLINK-5697,2023-020W,2026-06-19T23:03:07.495488,15.27579115,.00010959,43.0013,147.6409,274.8245,85.2482,0,U,55589,999,18455,.3843816E-4,.796E-5,0
STARLINK-5762,2023-020X,2026-06-20T06:44:39.581088,15.27573136,.00013236,43.0019,145.7527,266.5994,93.4706,0,U,55590,999,18460,.16886586E-4,.203E-5,0
STARLINK-5760,2023-020Y,2026-06-20T07:05:00.638592,15.27577164,.00007293,43.0015,145.8568,265.5209,94.5559,0,U,55591,999,18460,.1862309E-4,.251E-5,0
STARLINK-5759,2023-020Z,2026-06-20T04:44:36.214368,15.27573223,.00014712,43.0026,145.9842,272.0668,88.0015,0,U,55592,999,18459,.59727217E-4,.1381E-4,0
STARLINK-5703,2023-020AA,2026-06-19T23:56:33.936000,15.27580132,.00014375,42.9996,147.0614,261.1698,98.8991,0,U,55593,999,18456,.5727258E-5,-.105E-5,0
