STARLINK-5100           
1 55495U 23015AY  26171.14669816  .00001364  00000+0  59082-4 0  9998
2 55495  43.0049 102.8807 0001469 265.9934  94.0750 15.27583707186470
STARLINK-5363           
1 55497U 23015BA  26171.28165432  .00000033  00000+0  10712-4 0  9999
2 55497  43.0015 120.4839 0001027 258.4603 101.6134 15.27574483186287
STARLINK-5365           
1 55498U 23015BB  26171.29193484 -.00000450  00000+0 -68262-5 0  9998
2 55498  43.0020 120.5592 0000889 261.4385  98.6366 15.27575967186287
STARLINK-5366           
1 55499U 23015BC  26171.18028467  .00000743  00000+0  36515-4 0  9993
2 55499  43.0040 120.5871 0001642 279.9897  80.0769 15.27580694187028
STARLINK-5141           
1 55500U 23015BD  26171.22012313  .00000343  00000+0  21997-4 0  9998
2 55500  43.0013 120.8858 0001112 246.2317 113.8418 15.27576801186272
STARLINK-5367           
1 55501U 23015BE  26171.23425092  .00000379  00000+0  23292-4 0  9991
2 55501  43.0028 120.9774 0000895 273.9348  86.1402 15.27580604186276
STARLINK-5749           
1 55569U 23020A   26171.24082958  .00000420  00000+0  24768-4 0  9998
2 55569  42.9995 149.7161 0001120 265.9947  94.0777 15.27576449185621
STARLINK-5737           
1 55570U 23020B   26171.29257830  .00000205  00000+0  16955-4 0  9998
2 55570  43.0006 145.8397 0000092 332.5476  27.5371 15.27572701184606
STARLINK-5739           
1 55571U 23020C   26171.22028299 -.00000188  00000+0  27049-5 0  9995
2 55571  43.0003 149.5621 0001205 259.1060 100.9656 15.27572181184553
STARLINK-5732           
1 55572U 23020D   26171.02154404  .00000273  00000+0  19439-4 0  9999
2 55572  43.0015 150.6531 0001210 261.3741  98.6973 15.27578087184520
STARLINK-5738           
1 55573U 23020E   26171.21386190  .00002225  00000+0  90390-4 0  9994
2 55573  43.0030 149.5145 0001262 242.3003 117.7721 15.27565001184552
STARLINK-5747           
1 55574U 23020F   26171.24853923  .00000251  00000+0  18647-4 0  9993
2 55574  43.0021 149.7762 0001031 298.1789  61.8959 15.27575585184554
STARLINK-5745           
1 55575U 23020G   26171.29207980  .00000757  00000+0  37018-4 0  9999
2 55575  43.0025 149.2396 0001278 268.5376  91.5329 15.27577357184564
STARLINK-5751           
1 55576U 23020H   26171.23670093  .00000321  00000+0  21177-4 0  9999
2 55576  43.0023 120.2822 0001030 269.6918  90.3816 15.27575838184892
STARLINK-5752           
1 55577U 23020J   26171.23868771  .00020567  00000+0  75447-3 0  9994
2 55577  43.0022 146.2080 0000982 126.5970 233.4972 15.27595721184593
STARLINK-5754           
1 55579U 23020L   26171.28356344  .00001848  00000+0  76633-4 0  9999
2 55579  43.0028 145.7612 0000850 284.7108  75.3650 15.27594915184602
STARLINK-5757           
1 55580U 23020M   26171.18159526 -.00000057  00000+0  74727-5 0  9998
2 55580  43.0051 120.7288 0001640 270.7094  89.3570 15.27575903184881
STARLINK-5753           
1 55581U 23020N   26171.22620305  .00000823  00000+0  39431-4 0  9994
2 55581  43.0021 153.0157 0001205 266.8990  93.1724 15.27575903184515
STARLINK-5741           
1 55582U 23020P   26171.24262515  .00000249  00000+0  18589-4 0  9995
2 55582  43.0020 135.0526 0001387 262.2825  97.7869 15.27574524184724
STARLINK-5742           
1 55583U 23020Q   26171.19506202  .00000385  00000+0  23510-4 0  9995
2 55583  43.0016 145.9652 0001486 264.4827  95.5855 15.27577507184596
STARLINK-5736           
1 55584U 23020R   26170.99262798 -.00000488  00000+0 -81887-5 0  9990
2 55584  43.0030 147.8843 0001505 275.3356  84.7323 15.27581936184553
STARLINK-5769           
1 55585U 23020S   26171.26704425 -.00000441  00000+0 -65260-5 0  9996
2 55585  43.0014 135.2446 0000748 251.3279 108.7491 15.27575730184729
STARLINK-5767           
1 55586U 23020T   26171.23748090  .00011486  00000+0  42709-3 0  9990
2 55586  43.0018 146.2804 0000652 246.2877 113.7906 15.27514713184591
STARLINK-5727           
1 55587U 23020U   26171.23103004  .00000040  00000+0  10953-4 0  9992
2 55587  43.0019 146.1587 0000448 273.0721  87.0080 15.27576837184590
STARLINK-5728           
1 55588U 23020V   26171.29900107 -.00000508  00000+0 -89300-5 0  9992
2 55588  43.0024 145.8858 0001214 263.0284  97.0429 15.27574732184601
STARLINK-5697           
1 55589U 23020W   26170.96050342  .00000796  00000+0  38438-4 0  9995
2 55589  43.0013 147.6409 0001095 274.8245  85.2482 15.27579115184558
STARLINK-5762           
1 55590U 23020X   26171.28101367  .00000203  00000+0  16887-4 0  9994
2 55590  43.0019 145.7527 0001323 266.5994  93.4706 15.27573136184602
STARLINK-5760           
1 55591U 23020Y   26171.29514628  .00000251  00000+0  18623-4 0  9997
2 55591  43.0015 145.8568 0000729 265.5209  94.5559 15.27577164184605
STARLINK-5759           
1 55592U 23020Z   26171.19764137  .00001381  00000+0  59727-4 0  9994
2 55592  43.0026 145.9842 0001471 272.0668  88.0015 15.27573223184596
STARLINK-5703           
1 55593U 23020AA  26170.99761500 -.00000105  00000+0  57273-5 0  9992
2 55593  42.9996 147.0614 0001437 261.1698  98.8991 15.27580132184561
